[
    {
        "Altitude(m)": 571642.7603510207,
        "Argument of Periapsis(deg)": 0.026491964442854003,
        "Eccentricity": 0.0,
        "Inclination(deg)": 53.0,
        "Latitude(deg)": -52.62890888553149,
        "Longitude(deg)": 62.927589465733114,
        "Mean Anomaly(deg)": -83.26992852968961,
        "RAAN(deg)": 244.9605734741121,
        "Satellite Name": "Starlink Shell 1 1092",
        "Satellite Number": 1092,
        "Semi-Major Axis(m)": 6931778.249405717,
        "Time(s)": 760
    },
    {
        "Altitude(m)": 571603.7730451068,
        "Argument of Periapsis(deg)": 0.02684054292236524,
        "Eccentricity": 0.0,
        "Inclination(deg)": 53.0,
        "Latitude(deg)": -52.5284072571741,
        "Longitude(deg)": 63.89815104372638,
        "Mean Anomaly(deg)": -82.64309732613293,
        "RAAN(deg)": 244.9600547040346,
        "Satellite Name": "Starlink Shell 1 1092",
        "Satellite Number": 1092,
        "Semi-Major Axis(m)": 6931778.249405717,
        "Time(s)": 770
    },
    {
        "Altitude(m)": 571561.4005489392,
        "Argument of Periapsis(deg)": 0.027189121401876473,
        "Eccentricity": 0.0,
        "Inclination(deg)": 53.0,
        "Latitude(deg)": -52.4192982004019,
        "Longitude(deg)": 64.86391544085521,
        "Mean Anomaly(deg)": -82.01626612257621,
        "RAAN(deg)": 244.95953593395714,
        "Satellite Name": "Starlink Shell 1 1092",
        "Satellite Number": 1092,
        "Semi-Major Axis(m)": 6931778.249405717,
        "Time(s)": 780
    },
    {
        "Altitude(m)": 571515.6597426104,
        "Argument of Periapsis(deg)": 0.02753769988138771,
        "Eccentricity": 0.0,
        "Inclination(deg)": 53.0,
        "Latitude(deg)": -52.301657054114955,
        "Longitude(deg)": 65.82453672212864,
        "Mean Anomaly(deg)": -81.38943491901944,
        "RAAN(deg)": 244.95901716387965,
        "Satellite Name": "Starlink Shell 1 1092",
        "Satellite Number": 1092,
        "Semi-Major Axis(m)": 6931778.249405717,
        "Time(s)": 790
    },
    {
        "Altitude(m)": 571466.5688471509,
        "Argument of Periapsis(deg)": 0.02788627836089895,
        "Eccentricity": 0.0,
        "Inclination(deg)": 53.0,
        "Latitude(deg)": -52.17556408184306,
        "Longitude(deg)": 66.77968212643005,
        "Mean Anomaly(deg)": -80.76260371546277,
        "RAAN(deg)": 244.95849839380216,
        "Satellite Name": "Starlink Shell 1 1092",
        "Satellite Number": 1092,
        "Semi-Major Axis(m)": 6931778.249405717,
        "Time(s)": 800
    },
    {
        "Altitude(m)": 571414.1474166315,
        "Argument of Periapsis(deg)": 0.02823485684041019,
        "Eccentricity": 0.0,
        "Inclination(deg)": 53.0,
        "Latitude(deg)": -52.04110421702853,
        "Longitude(deg)": 67.72903318059916,
        "Mean Anomaly(deg)": -80.13577251190603,
        "RAAN(deg)": 244.95797962372475,
        "Satellite Name": "Starlink Shell 1 1092",
        "Satellite Number": 1092,
        "Semi-Major Axis(m)": 6931778.249405717,
        "Time(s)": 810
    },
    {
        "Altitude(m)": 571358.416329697,
        "Argument of Periapsis(deg)": 0.028583435319921423,
        "Eccentricity": 0.0,
        "Inclination(deg)": 53.0,
        "Latitude(deg)": -51.89836679963782,
        "Longitude(deg)": 68.67228672737066,
        "Mean Anomaly(deg)": -79.50894130834925,
        "RAAN(deg)": 244.95746085364726,
        "Satellite Name": "Starlink Shell 1 1092",
        "Satellite Number": 1092,
        "Semi-Major Axis(m)": 6931778.249405717,
        "Time(s)": 820
    },
    {
        "Altitude(m)": 571299.3977805389,
        "Argument of Periapsis(deg)": 0.028932013799432665,
        "Eccentricity": 0.0,
        "Inclination(deg)": 53.0,
        "Latitude(deg)": -51.747445305721946,
        "Longitude(deg)": 69.60915435536248,
        "Mean Anomaly(deg)": -78.88211010479259,
        "RAAN(deg)": 244.95694208356974,
        "Satellite Name": "Starlink Shell 1 1092",
        "Satellite Number": 1092,
        "Semi-Major Axis(m)": 6931778.249405717,
        "Time(s)": 830
    },
    {
        "Altitude(m)": 571237.1152692686,
        "Argument of Periapsis(deg)": 0.029280592278943897,
        "Eccentricity": 0.0,
        "Inclination(deg)": 53.0,
        "Latitude(deg)": -51.5884370717293,
        "Longitude(deg)": 70.53936325692902,
        "Mean Anomaly(deg)": -78.25527890123597,
        "RAAN(deg)": 244.95642331349234,
        "Satellite Name": "Starlink Shell 1 1092",
        "Satellite Number": 1092,
        "Semi-Major Axis(m)": 6931778.249405717,
        "Time(s)": 840
    },
    {
        "Altitude(m)": 571171.5935917438,
        "Argument of Periapsis(deg)": 0.029629170758455132,
        "Eccentricity": 0.0,
        "Inclination(deg)": 53.0,
        "Latitude(deg)": -51.42144301527269,
        "Longitude(deg)": 71.46265700244399,
        "Mean Anomaly(deg)": -77.62844769767919,
        "RAAN(deg)": 244.95590454341485,
        "Satellite Name": "Starlink Shell 1 1092",
        "Satellite Number": 1092,
        "Semi-Major Axis(m)": 6931778.249405717,
        "Time(s)": 850
    },
    {
        "Altitude(m)": 571102.8588288126,
        "Argument of Periapsis(deg)": 0.02997774923796637,
        "Eccentricity": 0.0,
        "Inclination(deg)": 53.0,
        "Latitude(deg)": -51.24656735400511,
        "Longitude(deg)": 72.37879455211595,
        "Mean Anomaly(deg)": -77.0016164941225,
        "RAAN(deg)": 244.95538577333735,
        "Satellite Name": "Starlink Shell 1 1092",
        "Satellite Number": 1092,
        "Semi-Major Axis(m)": 6931778.249405717,
        "Time(s)": 860
    },
    {
        "Altitude(m)": 571030.9383350079,
        "Argument of Periapsis(deg)": 0.030326327717477602,
        "Eccentricity": 0.0,
        "Inclination(deg)": 53.0,
        "Latitude(deg)": -51.06391732418505,
        "Longitude(deg)": 73.28755171046785,
        "Mean Anomaly(deg)": -76.37478529056578,
        "RAAN(deg)": 244.9548670032599,
        "Satellite Name": "Starlink Shell 1 1092",
        "Satellite Number": 1092,
        "Semi-Major Axis(m)": 6931778.249405717,
        "Time(s)": 870
    },
    {
        "Altitude(m)": 570955.8607266857,
        "Argument of Periapsis(deg)": 0.030674906196988847,
        "Eccentricity": 0.0,
        "Inclination(deg)": 53.0,
        "Latitude(deg)": -50.873602900436865,
        "Longitude(deg)": 74.18871998385752,
        "Mean Anomaly(deg)": -75.7479540870091,
        "RAAN(deg)": 244.9543482331824,
        "Satellite Name": "Starlink Shell 1 1092",
        "Satellite Number": 1092,
        "Semi-Major Axis(m)": 6931778.249405717,
        "Time(s)": 880
    },
    {
        "Altitude(m)": 570877.655869601,
        "Argument of Periapsis(deg)": 0.031023484676500086,
        "Eccentricity": 0.0,
        "Inclination(deg)": 53.0,
        "Latitude(deg)": -50.67573651811068,
        "Longitude(deg)": 75.08210704723449,
        "Mean Anomaly(deg)": -75.12112288345234,
        "RAAN(deg)": 244.95382946310494,
        "Satellite Name": "Starlink Shell 1 1092",
        "Satellite Number": 1092,
        "Semi-Major Axis(m)": 6931778.249405717,
        "Time(s)": 890
    },
    {
        "Altitude(m)": 570796.3548659442,
        "Argument of Periapsis(deg)": 0.03137206315601132,
        "Eccentricity": 0.0,
        "Inclination(deg)": 53.0,
        "Latitude(deg)": -50.47043279955124,
        "Longitude(deg)": 75.96753714334655,
        "Mean Anomaly(deg)": -74.49429167989561,
        "RAAN(deg)": 244.95331069302748,
        "Satellite Name": "Starlink Shell 1 1092",
        "Satellite Number": 1092,
        "Semi-Major Axis(m)": 6931778.249405717,
        "Time(s)": 900
    },
    {
        "Altitude(m)": 570711.9900408357,
        "Argument of Periapsis(deg)": 0.03172064163552255,
        "Eccentricity": 0.0,
        "Inclination(deg)": 53.0,
        "Latitude(deg)": -50.25780828547478,
        "Longitude(deg)": 76.84484990604587,
        "Mean Anomaly(deg)": -73.86746047633892,
        "RAAN(deg)": 244.95279192294998,
        "Satellite Name": "Starlink Shell 1 1092",
        "Satellite Number": 1092,
        "Semi-Major Axis(m)": 6931778.249405717,
        "Time(s)": 910
    },
    {
        "Altitude(m)": 570624.5949282844,
        "Argument of Periapsis(deg)": 0.0320692201150338,
        "Eccentricity": 0.0,
        "Inclination(deg)": 53.0,
        "Latitude(deg)": -50.0379811725391,
        "Longitude(deg)": 77.71390063820559,
        "Mean Anomaly(deg)": -73.24062927278214,
        "RAAN(deg)": 244.9522731528725,
        "Satellite Name": "Starlink Shell 1 1092",
        "Satellite Number": 1092,
        "Semi-Major Axis(m)": 6931778.249405717,
        "Time(s)": 920
    },
    {
        "Altitude(m)": 570534.2042566063,
        "Argument of Periapsis(deg)": 0.032417798594545036,
        "Eccentricity": 0.0,
        "Inclination(deg)": 53.0,
        "Latitude(deg)": -49.811071058079605,
        "Longitude(deg)": 78.57456053632392,
        "Mean Anomaly(deg)": -72.61379806922542,
        "RAAN(deg)": 244.9517543827951,
        "Satellite Name": "Starlink Shell 1 1092",
        "Satellite Number": 1092,
        "Semi-Major Axis(m)": 6931778.249405717,
        "Time(s)": 930
    },
    {
        "Altitude(m)": 570440.8539333206,
        "Argument of Periapsis(deg)": 0.03276637707405627,
        "Eccentricity": 0.0,
        "Inclination(deg)": 53.0,
        "Latitude(deg)": -49.57719869286726,
        "Longitude(deg)": 79.42671535400696,
        "Mean Anomaly(deg)": -71.98696686566876,
        "RAAN(deg)": 244.9512356127176,
        "Satellite Name": "Starlink Shell 1 1092",
        "Satellite Number": 1092,
        "Semi-Major Axis(m)": 6931778.249405717,
        "Time(s)": 940
    }
]